{
  "type": "FeatureCollection",
  "features": [
    {
      "type": "Feature",
      "properties": {
        "norad_id": 30040,
        "name": "FENGYUN 1C DEB",
        "group": "fengyun-1c-debris",
        "lat": 59.899250935538404,
        "lon": -148.15177278883536,
        "alt_km": 781.3500984168486,
        "timestamp": "2025-12-27T15:27:11.464057+00:00",
        "meta_object_name": "FENGYUN 1C DEB",
        "meta_object_id": "1999-025NR",
        "meta_epoch": "2025-12-27T00:09:18.112032",
        "meta_mean_motion": 14.37254039,
        "meta_eccentricity": 0.00323177,
        "meta_inclination": 98.2335,
        "meta_ra_of_asc_node": 16.774,
        "meta_arg_of_pericenter": 269.1252,
        "meta_mean_anomaly": 153.8773,
        "meta_ephemeris_type": 0,
        "meta_classification_type": "U",
        "meta_norad_cat_id": 30040,
        "meta_element_set_no": 999,
        "meta_rev_at_epoch": 98133,
        "meta_bstar": 0.0019363478,
        "meta_mean_motion_dot": 5.766e-05,
        "meta_mean_motion_ddot": 0,
        "tle_line1": "1 30040U 99025NR  25361.00645963  .00005766  00000+0  19363-2 0  9999",
        "tle_line2": "2 30040  98.2335  16.7740 0032317 269.1252 153.8773 14.37254039981333"
      },
      "geometry": {
        "type": "Point",
        "coordinates": [
          -148.15177278883536,
          59.899250935538404
        ]
      }
    },
    {
      "type": "Feature",
      "properties": {
        "norad_id": 30041,
        "name": "FENGYUN 1C DEB",
        "group": "fengyun-1c-debris",
        "lat": -37.937276669099994,
        "lon": -78.47645024098453,
        "alt_km": 835.8462984419493,
        "timestamp": "2025-12-27T15:27:11.464067+00:00",
        "meta_object_name": "FENGYUN 1C DEB",
        "meta_object_id": "1999-025NS",
        "meta_epoch": "2025-12-27T06:13:23.083680",
        "meta_mean_motion": 14.13211563,
        "meta_eccentricity": 0.00353092,
        "meta_inclination": 99.4669,
        "meta_ra_of_asc_node": 108.5905,
        "meta_arg_of_pericenter": 177.1215,
        "meta_mean_anomaly": 245.5218,
        "meta_ephemeris_type": 0,
        "meta_classification_type": "U",
        "meta_norad_cat_id": 30041,
        "meta_element_set_no": 999,
        "meta_rev_at_epoch": 97492,
        "meta_bstar": 0.00053100672,
        "meta_mean_motion_dot": 9.51e-06,
        "meta_mean_motion_ddot": 0,
        "tle_line1": "1 30041U 99025NS  25361.25929495  .00000951  00000+0  53101-3 0  9992",
        "tle_line2": "2 30041  99.4669 108.5905 0035309 177.1215 245.5218 14.13211563974920"
      },
      "geometry": {
        "type": "Point",
        "coordinates": [
          -78.47645024098453,
          -37.937276669099994
        ]
      }
    },
    {
      "type": "Feature",
      "properties": {
        "norad_id": 30043,
        "name": "FENGYUN 1C DEB",
        "group": "fengyun-1c-debris",
        "lat": 65.09431377882532,
        "lon": 80.25407598483473,
        "alt_km": 615.8358381944781,
        "timestamp": "2025-12-27T15:27:11.464078+00:00",
        "meta_object_name": "FENGYUN 1C DEB",
        "meta_object_id": "1999-025NU",
        "meta_epoch": "2025-12-27T05:01:51.366720",
        "meta_mean_motion": 14.23645652,
        "meta_eccentricity": 0.02833705,
        "meta_inclination": 98.6264,
        "meta_ra_of_asc_node": 98.9113,
        "meta_arg_of_pericenter": 88.9981,
        "meta_mean_anomaly": 274.3648,
        "meta_ephemeris_type": 0,
        "meta_classification_type": "U",
        "meta_norad_cat_id": 30043,
        "meta_element_set_no": 999,
        "meta_rev_at_epoch": 97551,
        "meta_bstar": 0.00072860397,
        "meta_mean_motion_dot": 2.47e-05,
        "meta_mean_motion_ddot": 0,
        "tle_line1": "1 30043U 99025NU  25361.20962230  .00002470  00000+0  72860-3 0  9994",
        "tle_line2": "2 30043  98.6264  98.9113 0283370  88.9981 274.3648 14.23645652975513"
      },
      "geometry": {
        "type": "Point",
        "coordinates": [
          80.25407598483473,
          65.09431377882532
        ]
      }
    },
    {
      "type": "Feature",
      "properties": {
        "norad_id": 30044,
        "name": "FENGYUN 1C DEB",
        "group": "fengyun-1c-debris",
        "lat": -35.00687693748577,
        "lon": -72.61509646485429,
        "alt_km": 781.4864807391714,
        "timestamp": "2025-12-27T15:27:11.464088+00:00",
        "meta_object_name": "FENGYUN 1C DEB",
        "meta_object_id": "1999-025NV",
        "meta_epoch": "2025-12-27T07:20:31.642656",
        "meta_mean_motion": 14.50842128,
        "meta_eccentricity": 0.00805154,
        "meta_inclination": 98.2118,
        "meta_ra_of_asc_node": 281.2502,
        "meta_arg_of_pericenter": 122.192,
        "meta_mean_anomaly": 238.7116,
        "meta_ephemeris_type": 0,
        "meta_classification_type": "U",
        "meta_norad_cat_id": 30044,
        "meta_element_set_no": 999,
        "meta_rev_at_epoch": 98250,
        "meta_bstar": 0.0018266881,
        "meta_mean_motion_dot": 7.469e-05,
        "meta_mean_motion_ddot": 0,
        "tle_line1": "1 30044U 99025NV  25361.30592179  .00007469  00000+0  18267-2 0  9990",
        "tle_line2": "2 30044  98.2118 281.2502 0080515 122.1920 238.7116 14.50842128982505"
      },
      "geometry": {
        "type": "Point",
        "coordinates": [
          -72.61509646485429,
          -35.00687693748577
        ]
      }
    },
    {
      "type": "Feature",
      "properties": {
        "norad_id": 30045,
        "name": "FENGYUN 1C DEB",
        "group": "fengyun-1c-debris",
        "lat": 9.551899550049331,
        "lon": 36.24479229131768,
        "alt_km": 788.1615638645762,
        "timestamp": "2025-12-27T15:27:11.464098+00:00",
        "meta_object_name": "FENGYUN 1C DEB",
        "meta_object_id": "1999-025NW",
        "meta_epoch": "2025-12-27T02:09:11.636064",
        "meta_mean_motion": 14.21726677,
        "meta_eccentricity": 0.00935947,
        "meta_inclination": 99.1788,
        "meta_ra_of_asc_node": 37.2277,
        "meta_arg_of_pericenter": 72.5941,
        "meta_mean_anomaly": 343.3725,
        "meta_ephemeris_type": 0,
        "meta_classification_type": "U",
        "meta_norad_cat_id": 30045,
        "meta_element_set_no": 999,
        "meta_rev_at_epoch": 96892,
        "meta_bstar": 0.0021605689,
        "meta_mean_motion_dot": 4.921e-05,
        "meta_mean_motion_ddot": 0,
        "tle_line1": "1 30045U 99025NW  25361.08971801  .00004921  00000+0  21606-2 0  9990",
        "tle_line2": "2 30045  99.1788  37.2277 0093594  72.5941 343.3725 14.21726677968926"
      },
      "geometry": {
        "type": "Point",
        "coordinates": [
          36.24479229131768,
          9.551899550049331
        ]
      }
    },
    {
      "type": "Feature",
      "properties": {
        "norad_id": 30047,
        "name": "FENGYUN 1C DEB",
        "group": "fengyun-1c-debris",
        "lat": -70.75161094907283,
        "lon": -170.18832813286514,
        "alt_km": 828.942924276761,
        "timestamp": "2025-12-27T15:27:11.464108+00:00",
        "meta_object_name": "FENGYUN 1C DEB",
        "meta_object_id": "1999-025NY",
        "meta_epoch": "2025-12-27T04:36:33.184800",
        "meta_mean_motion": 13.94381941,
        "meta_eccentricity": 0.01258187,
        "meta_inclination": 99.9199,
        "meta_ra_of_asc_node": 159.2504,
        "meta_arg_of_pericenter": 284.2793,
        "meta_mean_anomaly": 255.3494,
        "meta_ephemeris_type": 0,
        "meta_classification_type": "U",
        "meta_norad_cat_id": 30047,
        "meta_element_set_no": 999,
        "meta_rev_at_epoch": 96117,
        "meta_bstar": 0.00087848312,
        "meta_mean_motion_dot": 1.197e-05,
        "meta_mean_motion_ddot": 0,
        "tle_line1": "1 30047U 99025NY  25361.19205075  .00001197  00000+0  87848-3 0  9990",
        "tle_line2": "2 30047  99.9199 159.2504 0125818 284.2793 255.3494 13.94381941961177"
      },
      "geometry": {
        "type": "Point",
        "coordinates": [
          -170.18832813286514,
          -70.75161094907283
        ]
      }
    },
    {
      "type": "Feature",
      "properties": {
        "norad_id": 30048,
        "name": "FENGYUN 1C DEB",
        "group": "fengyun-1c-debris",
        "lat": -43.20564422663503,
        "lon": 38.002541488112314,
        "alt_km": 841.233946196402,
        "timestamp": "2025-12-27T15:27:11.464118+00:00",
        "meta_object_name": "FENGYUN 1C DEB",
        "meta_object_id": "1999-025NZ",
        "meta_epoch": "2025-12-27T04:34:14.611296",
        "meta_mean_motion": 13.79900931,
        "meta_eccentricity": 0.01864835,
        "meta_inclination": 98.6658,
        "meta_ra_of_asc_node": 225.8223,
        "meta_arg_of_pericenter": 205.7424,
        "meta_mean_anomaly": 286.0209,
        "meta_ephemeris_type": 0,
        "meta_classification_type": "U",
        "meta_norad_cat_id": 30048,
        "meta_element_set_no": 999,
        "meta_rev_at_epoch": 95325,
        "meta_bstar": 0.0002253841,
        "meta_mean_motion_dot": 2.27e-06,
        "meta_mean_motion_ddot": 0,
        "tle_line1": "1 30048U 99025NZ  25361.19044689  .00000227  00000+0  22538-3 0  9991",
        "tle_line2": "2 30048  98.6658 225.8223 0186483 205.7424 286.0209 13.79900931953250"
      },
      "geometry": {
        "type": "Point",
        "coordinates": [
          38.002541488112314,
          -43.20564422663503
        ]
      }
    }
  ]
}